start=new Date('2022-03-11T00:00:00.000Z').valueOf();
sats=[{"PERIAPSIS":"546.212","REF_FRAME":"TEME","EPHEMERIS_TYPE":"0","NORAD_CAT_ID":"48124","APOAPSIS":"548.196","MEAN_ANOMALY":"288.9528","COUNTRY_CODE":"US","FILE":"3354091","MEAN_MOTION":"15.06403113","TLE_LINE1":"1 48124U 21027AJ  22069.81910564  .00001144  00000-0  95648-4 0  9990","EPOCH":"2022-03-10T19:39:30.727296","RCS_SIZE":"LARGE","PERIOD":"95.592","MEAN_MOTION_DDOT":"0.0000000000000","ELEMENT_SET_NO":"999","TIME_SYSTEM":"UTC","BSTAR":"0.00009564800000","REV_AT_EPOCH":"5251","TLE_LINE2":"2 48124  53.0539 235.2427 0001433  71.1617 288.9528 15.06403113 52514","SEMIMAJOR_AXIS":"6925.339","DECAY_DATE":null,"MEAN_MOTION_DOT":"0.00001144","OBJECT_TYPE":"PAYLOAD","CENTER_NAME":"EARTH","INCLINATION":"53.0539","ARG_OF_PERICENTER":"71.1617","ECCENTRICITY":"0.00014330","OBJECT_NAME":"STARLINK-2465","SITE":"AFETR","GP_ID":"198438736","MEAN_ELEMENT_THEORY":"SGP4","RA_OF_ASC_NODE":"235.2427","LAUNCH_DATE":"2021-04-07","CLASSIFICATION_TYPE":"U","OBJECT_ID":"2021-027AJ"},{"FILE":"3354091","MEAN_MOTION":"15.06397010","RCS_SIZE":"LARGE","PERIOD":"95.592","EPOCH":"2022-03-10T19:26:13.335648","MEAN_MOTION_DDOT":"0.0000000000000","TLE_LINE1":"1 48125U 21027AK  22069.80987657  .00001255  00000-0  10316-3 0  9998","MEAN_ANOMALY":"283.3351","COUNTRY_CODE":"US","EPHEMERIS_TYPE":"0","APOAPSIS":"548.182","NORAD_CAT_ID":"48125","REF_FRAME":"TEME","PERIAPSIS":"546.264","CLASSIFICATION_TYPE":"U","OBJECT_ID":"2021-027AK","MEAN_ELEMENT_THEORY":"SGP4","LAUNCH_DATE":"2021-04-07","RA_OF_ASC_NODE":"245.2799","GP_ID":"198438483","SITE":"AFETR","ECCENTRICITY":"0.00013850","ARG_OF_PERICENTER":"76.7793","OBJECT_NAME":"STARLINK-2466","CENTER_NAME":"EARTH","OBJECT_TYPE":"PAYLOAD","INCLINATION":"53.0535","MEAN_MOTION_DOT":"0.00001255","TLE_LINE2":"2 48125  53.0535 245.2799 0001385  76.7793 283.3351 15.06397010 52382","DECAY_DATE":null,"SEMIMAJOR_AXIS":"6925.358","TIME_SYSTEM":"UTC","ELEMENT_SET_NO":"999","REV_AT_EPOCH":"5238","BSTAR":"0.00010316000000"},{"GP_ID":"198437239","SITE":"AFETR","OBJECT_NAME":"STARLINK-2467","ECCENTRICITY":"0.00012660","ARG_OF_PERICENTER":"88.3585","CLASSIFICATION_TYPE":"U","OBJECT_ID":"2021-027AL","LAUNCH_DATE":"2021-04-07","RA_OF_ASC_NODE":"225.0680","MEAN_ELEMENT_THEORY":"SGP4","DECAY_DATE":null,"SEMIMAJOR_AXIS":"6925.342","TLE_LINE2":"2 48126  53.0542 225.0680 0001266  88.3585 271.7548 15.06402093 52671","REV_AT_EPOCH":"5267","BSTAR":"0.00011954000000","TIME_SYSTEM":"UTC","ELEMENT_SET_NO":"999","INCLINATION":"53.0542","CENTER_NAME":"EARTH","OBJECT_TYPE":"PAYLOAD","MEAN_MOTION_DOT":"0.00001500","RCS_SIZE":"LARGE","PERIOD":"95.592","MEAN_MOTION_DDOT":"0.0000000000000","EPOCH":"2022-03-10T20:28:37.023456","TLE_LINE1":"1 48126U 21027AL  22069.85320629  .00001500  00000-0  11954-3 0  9996","FILE":"3354091","MEAN_MOTION":"15.06402093","COUNTRY_CODE":"US","MEAN_ANOMALY":"271.7548","PERIAPSIS":"546.330","APOAPSIS":"548.084","NORAD_CAT_ID":"48126","EPHEMERIS_TYPE":"0","REF_FRAME":"TEME"},{"MEAN_ELEMENT_THEORY":"SGP4","LAUNCH_DATE":"2021-04-07","RA_OF_ASC_NODE":"245.1284","OBJECT_ID":"2021-027AM","CLASSIFICATION_TYPE":"U","ECCENTRICITY":"0.00015480","ARG_OF_PERICENTER":"75.2258","OBJECT_NAME":"STARLINK-2468","GP_ID":"198437489","SITE":"AFETR","MEAN_MOTION_DOT":"0.00002419","CENTER_NAME":"EARTH","OBJECT_TYPE":"PAYLOAD","INCLINATION":"53.0540","TIME_SYSTEM":"UTC","ELEMENT_SET_NO":"999","REV_AT_EPOCH":"5238","BSTAR":"0.00018125000000","TLE_LINE2":"2 48127  53.0540 245.1284 0001548  75.2258 284.8903 15.06399715 52382","DECAY_DATE":null,"SEMIMAJOR_AXIS":"6925.349","MEAN_ANOMALY":"284.8903","COUNTRY_CODE":"US","FILE":"3354091","MEAN_MOTION":"15.06399715","PERIOD":"95.592","RCS_SIZE":"LARGE","MEAN_MOTION_DDOT":"0.0000000000000","EPOCH":"2022-03-10T20:15:21.225888","TLE_LINE1":"1 48127U 21027AM  22069.84399567  .00002419  00000-0  18125-3 0  9990","REF_FRAME":"TEME","EPHEMERIS_TYPE":"0","APOAPSIS":"548.286","NORAD_CAT_ID":"48127","PERIAPSIS":"546.142"},{"EPHEMERIS_TYPE":"0","NORAD_CAT_ID":"48128","APOAPSIS":"548.218","REF_FRAME":"TEME","PERIAPSIS":"546.236","FILE":"3354091","MEAN_MOTION":"15.06395645","TLE_LINE1":"1 48128U 21027AN  22069.81633088  .00004075  00000-0  29235-3 0  9991","RCS_SIZE":"LARGE","PERIOD":"95.592","EPOCH":"2022-03-10T19:35:30.988032","MEAN_MOTION_DDOT":"0.0000000000000","MEAN_ANOMALY":"267.7413","COUNTRY_CODE":"US","OBJECT_TYPE":"PAYLOAD","CENTER_NAME":"EARTH","INCLINATION":"53.0548","MEAN_MOTION_DOT":"0.00004075","TLE_LINE2":"2 48128  53.0548 175.2477 0001431  92.3740 267.7413 15.06395645 53357","SEMIMAJOR_AXIS":"6925.362","DECAY_DATE":null,"ELEMENT_SET_NO":"999","TIME_SYSTEM":"UTC","BSTAR":"0.00029235000000","REV_AT_EPOCH":"5335","CLASSIFICATION_TYPE":"U","OBJECT_ID":"2021-027AN","MEAN_ELEMENT_THEORY":"SGP4","RA_OF_ASC_NODE":"175.2477","LAUNCH_DATE":"2021-04-07","SITE":"AFETR","GP_ID":"198438237","ARG_OF_PERICENTER":"92.3740","ECCENTRICITY":"0.00014310","OBJECT_NAME":"STARLINK-2469"},{"REF_FRAME":"TEME","EPHEMERIS_TYPE":"0","APOAPSIS":"548.252","NORAD_CAT_ID":"48129","PERIAPSIS":"546.202","MEAN_ANOMALY":"288.0315","COUNTRY_CODE":"US","FILE":"3354091","MEAN_MOTION":"15.06395496","MEAN_MOTION_DDOT":"0.0000000000000","RCS_SIZE":"LARGE","PERIOD":"95.592","EPOCH":"2022-03-10T20:04:44.640192","TLE_LINE1":"1 48129U 21027AP  22069.83662778  .00001939  00000-0  14908-3 0  9999","MEAN_MOTION_DOT":"0.00001939","CENTER_NAME":"EARTH","OBJECT_TYPE":"PAYLOAD","INCLINATION":"53.0529","TIME_SYSTEM":"UTC","ELEMENT_SET_NO":"999","REV_AT_EPOCH":"5238","BSTAR":"0.00014908000000","TLE_LINE2":"2 48129  53.0529 245.1600 0001480  72.0835 288.0315 15.06395496 52389","DECAY_DATE":null,"SEMIMAJOR_AXIS":"6925.362","MEAN_ELEMENT_THEORY":"SGP4","LAUNCH_DATE":"2021-04-07","RA_OF_ASC_NODE":"245.1600","OBJECT_ID":"2021-027AP","CLASSIFICATION_TYPE":"U","ECCENTRICITY":"0.00014800","ARG_OF_PERICENTER":"72.0835","OBJECT_NAME":"STARLINK-2471","GP_ID":"198438983","SITE":"AFETR"},{"TLE_LINE2":"2 48130  53.0540 250.5004 0001351  72.5282 287.5855 15.06391016 52309","SEMIMAJOR_AXIS":"6925.376","DECAY_DATE":null,"ELEMENT_SET_NO":"999","TIME_SYSTEM":"UTC","BSTAR":"0.00016027000000","REV_AT_EPOCH":"5230","OBJECT_TYPE":"PAYLOAD","CENTER_NAME":"EARTH","INCLINATION":"53.0540","MEAN_MOTION_DOT":"0.00002106","SITE":"AFETR","GP_ID":"198437739","ARG_OF_PERICENTER":"72.5282","ECCENTRICITY":"0.00013510","OBJECT_NAME":"STARLINK-2472","CLASSIFICATION_TYPE":"U","OBJECT_ID":"2021-027AQ","MEAN_ELEMENT_THEORY":"SGP4","RA_OF_ASC_NODE":"250.5004","LAUNCH_DATE":"2021-04-07","PERIAPSIS":"546.305","EPHEMERIS_TYPE":"0","NORAD_CAT_ID":"48130","APOAPSIS":"548.177","REF_FRAME":"TEME","MEAN_MOTION":"15.06391016","FILE":"3354091","TLE_LINE1":"1 48130U 21027AQ  22069.75967238  .00002106  00000-0  16027-3 0  9992","EPOCH":"2022-03-10T18:13:55.693632","RCS_SIZE":"LARGE","PERIOD":"95.593","MEAN_MOTION_DDOT":"0.0000000000000","MEAN_ANOMALY":"287.5855","COUNTRY_CODE":"US"},{"COUNTRY_CODE":"US","MEAN_ANOMALY":"279.8326","RCS_SIZE":"LARGE","MEAN_MOTION_DDOT":"0.0000000000000","PERIOD":"95.592","EPOCH":"2022-03-10T20:18:00.201024","TLE_LINE1":"1 48131U 21027AR  22069.84583566  .00004318  00000-0  30856-3 0  9994","FILE":"3354091","MEAN_MOTION":"15.06406466","PERIAPSIS":"546.141","REF_FRAME":"TEME","APOAPSIS":"548.246","NORAD_CAT_ID":"48131","EPHEMERIS_TYPE":"0","OBJECT_NAME":"STARLINK-2473","ECCENTRICITY":"0.00015200","ARG_OF_PERICENTER":"80.2834","GP_ID":"198437989","SITE":"AFETR","LAUNCH_DATE":"2021-04-07","RA_OF_ASC_NODE":"225.1101","MEAN_ELEMENT_THEORY":"SGP4","OBJECT_ID":"2021-027AR","CLASSIFICATION_TYPE":"U","REV_AT_EPOCH":"5266","BSTAR":"0.00030856000000","TIME_SYSTEM":"UTC","ELEMENT_SET_NO":"999","DECAY_DATE":null,"SEMIMAJOR_AXIS":"6925.329","TLE_LINE2":"2 48131  53.0523 225.1101 0001520  80.2834 279.8326 15.06406466 52666","MEAN_MOTION_DOT":"0.00004318","INCLINATION":"53.0523","CENTER_NAME":"EARTH","OBJECT_TYPE":"PAYLOAD"},{"CLASSIFICATION_TYPE":"U","OBJECT_ID":"2021-027AS","RA_OF_ASC_NODE":"245.2139","LAUNCH_DATE":"2021-04-07","MEAN_ELEMENT_THEORY":"SGP4","SITE":"AFETR","GP_ID":"198438737","OBJECT_NAME":"STARLINK-2474","ARG_OF_PERICENTER":"77.8831","ECCENTRICITY":"0.00014580","INCLINATION":"53.0539","OBJECT_TYPE":"PAYLOAD","CENTER_NAME":"EARTH","MEAN_MOTION_DOT":"0.00000854","SEMIMAJOR_AXIS":"6925.349","DECAY_DATE":null,"TLE_LINE2":"2 48132  53.0539 245.2139 0001458  77.8831 282.2321 15.06399706 52376","BSTAR":"0.00007620300000","REV_AT_EPOCH":"5237","ELEMENT_SET_NO":"999","TIME_SYSTEM":"UTC","TLE_LINE1":"1 48132U 21027AS  22069.82556354  .00000854  00000-0  76203-4 0  9996","EPOCH":"2022-03-10T19:48:48.689856","RCS_SIZE":"LARGE","PERIOD":"95.592","MEAN_MOTION_DDOT":"0.0000000000000","FILE":"3354091","MEAN_MOTION":"15.06399706","COUNTRY_CODE":"US","MEAN_ANOMALY":"282.2321","NORAD_CAT_ID":"48132","APOAPSIS":"548.224","EPHEMERIS_TYPE":"0","REF_FRAME":"TEME","PERIAPSIS":"546.205"},{"FILE":"3354091","MEAN_MOTION":"15.06404894","RCS_SIZE":"LARGE","MEAN_MOTION_DDOT":"0.0000000000000","PERIOD":"95.592","EPOCH":"2022-03-10T18:07:57.338400","TLE_LINE1":"1 48133U 21027AT  22069.75552475  .00002485  00000-0  18564-3 0  9996","MEAN_ANOMALY":"287.0442","COUNTRY_CODE":"US","EPHEMERIS_TYPE":"0","APOAPSIS":"548.318","NORAD_CAT_ID":"48133","REF_FRAME":"TEME","PERIAPSIS":"546.079","CLASSIFICATION_TYPE":"U","OBJECT_ID":"2021-027AT","MEAN_ELEMENT_THEORY":"SGP4","LAUNCH_DATE":"2021-04-07","RA_OF_ASC_NODE":"245.5282","GP_ID":"198438484","SITE":"AFETR","ECCENTRICITY":"0.00016160","ARG_OF_PERICENTER":"73.0724","OBJECT_NAME":"STARLINK-2475","CENTER_NAME":"EARTH","OBJECT_TYPE":"PAYLOAD","INCLINATION":"53.0528","MEAN_MOTION_DOT":"0.00002485","TLE_LINE2":"2 48133  53.0528 245.5282 0001616  73.0724 287.0442 15.06404894 52374","DECAY_DATE":null,"SEMIMAJOR_AXIS":"6925.334","TIME_SYSTEM":"UTC","ELEMENT_SET_NO":"999","REV_AT_EPOCH":"5237","BSTAR":"0.00018564000000"}];
